GAOFEN-5 01             
1 43461U 18043A   26145.38639411  .00000300  00000+0  71848-4 0  9991
2 43461  98.4558 116.4963 0002598 124.6440 235.5005 14.60586669428368
GAOFEN-6                
1 43484U 18048A   26145.50569688  .00000504  00000+0  79201-4 0  9990
2 43484  97.7766 209.0199 0010618 246.2019 113.8078 14.76600361430040
GAOFEN-11 01            
1 43585U 18063A   26145.52081257  .00017171  00000+0  26151-3 0  9995
2 43585  97.1304 212.4749 0005316  69.3809 290.8016 15.54549187436828
ICESAT-2                
1 43613U 18070A   26145.49927090  .00008852  00000+0  32113-3 0  9996
2 43613  92.0051 284.8543 0003211 122.7881 237.3678 15.28303797428999
HYSIS                   
1 43719U 18096A   26145.47448344  .00001181  00000+0  16831-3 0  9996
2 43719  97.9843 212.3989 0001175 118.5087 241.6242 14.78638961404062
KAZSTSAT                
1 43783U 18099AB  26145.08050714  .00000732  00000+0  63678-4 0  9990
2 43783  97.4277 178.0612 0006372 130.4440 229.7340 14.99801738407842
SAUDISAT 5A             
1 43831U 18102A   26145.50503870  .00005139  00000+0  19194-3 0  9991
2 43831  97.3081 207.5258 0008995 204.8125 155.2683 15.27775057412217
SAUDISAT 5B             
1 43833U 18102C   26145.52779131  .00004846  00000+0  17965-3 0  9998
2 43833  97.3186 210.5766 0009618 207.8576 152.2150 15.28045944412334
GAOFEN-10R              
1 44622U 19066A   26145.55120715  .00000937  00000+0  12210-3 0  9991
2 44622  98.0488  98.9680 0004886 196.5854 163.5200 14.83001236359025
CARTOSAT-3              
1 44804U 19081A   26145.50040642  .00005636  00000+0  27007-3 0  9996
2 44804  97.4319 207.7300 0011539 225.2672 134.7624 15.19267432360027
GAOFEN-12 01            
1 44819U 19082A   26145.50520207  .00000351  00000+0  52549-4 0  9992
2 44819  97.8105 152.4839 0002496  98.1159 262.0337 14.80436660350733
CSG-1                   
1 44873U 19092A   26145.50285069  .00000352  00000+0  50823-4 0  9991
2 44873  97.8887 329.4341 0001408  94.1905 265.9469 14.82160589348114
NEMO-HD                 
1 46277U 20061F   26145.51639969  .00009940  00000+0  21944-3 0  9995
2 46277  97.1934 207.7048 0002726 107.6483 252.5064 15.44066939318480
SENTINEL-6A             
1 46984U 20086A   26145.52153442 -.00000035  00000+0  11462-3 0  9996
2 46984  66.0391 182.1298 0007936 270.2737  89.7369 12.80929185257429
CAS500-1                
1 47932U 21022A   26145.55131088  .00005664  00000+0  26460-3 0  9992
2 47932  97.3926  41.2590 0006026  26.9579 333.1968 15.20183181287321
GAOFEN-12 02            
1 48079U 21026A   26145.51384655  .00000319  00000+0  48847-4 0  9991
2 48079  97.9921 143.7882 0003784 323.0287  37.0663 14.80274892278408
PLEIADES NEO 3          
1 48268U 21034A   26144.34664620  .00000506  00000+0  70866-4 0  9997
2 48268  97.8926 219.4559 0001440  94.5632 265.5745 14.81678103274123
PLEIADES NEO 4          
1 49070U 21073E   26145.46092766  .00000918  00000+0  12324-3 0  9993
2 49070  97.8928 220.5504 0001464  91.7594 268.3786 14.81672693258005
LANDSAT 9               
1 49260U 21088A   26145.46687470  .00000265  00000+0  68833-4 0  9994
2 49260  98.1858 215.9696 0001451  97.7775 262.3589 14.57115814247693
CSG-2                   
1 51444U 22008A   26145.53659918  .00000417  00000+0  58942-4 0  9997
2 51444  97.8891 329.4630 0001413  88.3901 271.7473 14.82155087233232
GAOFEN-12 03            
1 52912U 22069A   26145.47193566  .00000579  00000+0  83203-4 0  9997
2 52912  97.8305  33.9116 0001026 112.1089 248.0232 14.79991517211252
SWOT                    
1 54754U 22173A   26145.48016558  .00000021  00000+0  15703-4 0  9997
2 54754  77.6110  65.9618 0000113  96.2436 263.8728 14.00171724175971
GAOFEN-12 04            
1 57654U 23123A   26145.55916045  .00000844  00000+0  11796-3 0  9993
2 57654  97.9131  63.9018 0001679  92.4759 267.6645 14.80176763149288
PARS 1                  
1 59065U 24039Q   26145.52350157  .00009954  00000+0  21136-3 0  9991
2 59065  97.4813 125.7401 0009210 183.7778 176.3403 15.45196753125145
RESURS-P 4              
1 59371U 24061A   26145.53394693  .00002766  00000+0  92040-4 0  9997
2 59371  97.2739  93.8314 0000670  87.8080 272.3239 15.31980423120294
LEGION 1                
1 59625U 24081A   26145.46401168  .00003317  00000+0  17363-3 0  9996
2 59625  97.5017 223.5663 0011025  88.7355 271.5140 15.16476468114093
LEGION 2                
1 59626U 24081B   26145.49370958  .00003919  00000+0  20448-3 0  9998
2 59626  97.5018 223.6938 0012789  60.2580 299.9923 15.16457924114105
ALOS-4 (DAICHI-4)       
1 60182U 24123A   26145.50149561  .00001282  00000+0  17855-3 0  9999
2 60182  97.9231 242.9944 0001622  96.7127 263.4269 14.79475138102528
LEGION 3                
1 60452U 24146A   26145.46241485  .00002556  00000+0  14495-3 0  9999
2 60452  44.9997 152.4146 0007555  22.9136 337.2078 15.15837928 98577
LEGION 4                
1 60453U 24146B   26145.46556399  .00003953  00000+0  21644-3 0  9999
2 60453  45.0009 244.3092 0013120 187.7281 172.3397 15.15845273 97428
SENTINEL-2C             
1 60989U 24157A   26145.44524914  .00000094  00000+0  52394-4 0  9991
2 60989  98.5694 220.5481 0001409  85.5312 274.6032 14.30822603 89735
IONOSFERA-M 1           
1 61735U 24199A   26145.47848086  .00000030  00000+0  33109-4 0  9992
2 61735  98.7203  18.8873 0001083 139.8707 220.2551 14.22749533124470
IONOSFERA-M 2           
1 61736U 24199B   26145.51283148  .00000039  00000+0  37017-4 0  9991
2 61736  98.7202  18.8321 0001794  61.9970 298.1389 14.22752623127609
PRSC-EO1                
1 62725U 25012A   26145.31301287  .00006630  00000+0  33155-3 0  9999
2 62725  97.4229 218.2191 0004900 354.6912   5.4269 15.17754378 74728
BIOMASS                 
1 63772U 25090A   26145.39697142  .00000477  00000+0  92579-4 0  9993
2 63772  98.0744 333.0438 0001417  90.0658 270.0709 14.67535428 57343
GOSAT-GW (IBUKI GW)     
1 64694U 25141A   26145.55390429  .00000710  00000+0  13352-3 0  9991
2 64694  98.0567  83.2396 0001426  84.4210 275.7157 14.67554094 48527
IONOSFERA-M 3           
1 64876U 25155A   26145.51022523  .00000051  00000+0  43050-4 0  9998
2 64876  98.6014 107.9881 0000423 352.3719   7.7452 14.21482010 43188
IONOSFERA-M 4           
1 64877U 25155B   26145.47471267  .00000049  00000+0  42066-4 0  9990
2 64877  98.6013 107.8711 0000531  76.2079 283.9158 14.21484088 43177
MICROCARB               
1 64899U 25156A   26145.45068198  .00000451  00000+0  79054-4 0  9992
2 64899  97.9833 222.9938 0015962 349.8920  10.1964 14.72297887 44622
CO3D 3                  
1 64900U 25156B   26145.47876808  .00004605  00000+0  21569-3 0  9994
2 64900  97.4327 224.4984 0000652 155.1802 204.9465 15.20209127 46088
CO3D 4                  
1 64901U 25156C   26145.47892171  .00002173  00000+0  10348-3 0  9997
2 64901  97.4326 224.4984 0001412  58.8814 301.2559 15.20191652 46083
CO3D 2                  
1 64902U 25156D   26145.44557419  .00004621  00000+0  21647-3 0  9992
2 64902  97.4327 224.3644 0001116 132.7972 227.3357 15.20195896 46072
CO3D 1                  
1 64903U 25156E   26145.44572774  .00004512  00000+0  21145-3 0  9996
2 64903  97.4327 224.3647 0000923 128.8853 231.2465 15.20195627 46071
PRSC-S1                 
1 65055U 25164A   26145.45605385  .00004480  00000+0  31194-3 0  9999
2 65055  41.1310  55.8095 0006703 213.3223 146.7169 15.06210067 45008
SENTINEL-6B             
1 66514U 25264A   26145.36573020 -.00000046  00000+0  66272-4 0  9992
2 66514  66.0392 182.5795 0008056 269.3823  90.6269 12.80929091 24244
CAS500-3                
1 66655U 25274F   26145.35616041  .00001101  00000+0  12501-3 0  9996
2 66655  97.7447  73.9280 0005103 175.0244 185.1025 14.88256248 26759
CSG-3                   
1 67304U 26001A   26145.38046294  .00000271  00000+0  40616-4 0  9993
2 67304  97.8885 329.3129 0001303  90.6370 269.4993 14.82150396 21080
PRSC-E03                
1 68835U 26092A   26145.52120376  .00002220  00000+0  15446-3 0  9991
2 68835  38.0001 223.3274 0004792 217.9787 142.0637 15.06552505  4539
CAS500-2                
1 69013U 26100AK  26145.51339858  .00006111  00000+0  28312-3 0  9995
2 69013  97.4098  43.7581 0009296  98.0678 262.1612 15.20416931  3364
